#   COSMOS 2405         # Near Earth, perigee = 127.20 (< 156) s4 mod
# 0 2880 120
1 28350U 04020A   06167.21788666  .16154492  76267-5  18678-3 0  8894
2 28350  64.9977 345.6130 0024870 260.7578  99.9590 16.47856722116490
